CORVUS BC4              
1 43767U 18099K   22229.13350598  .00001886  00000+0  17320-3 0  9993
2 43767  97.6123 292.7286 0012997  67.7243 292.5356 14.95930901202041
MOVE-II                 
1 43780U 18099Y   22229.13815287  .00004274  00000+0  36492-3 0  9994
2 43780  97.6209 295.1851 0014622  71.5576 288.7235 14.98121556202140
SPACEBEE-7              
1 43816U 18099BL  22229.13003807  .00003177  00000+0  27377-3 0  9994
2 43816  97.6218 295.9067 0013931  57.0625 303.1935 14.97952872201738
SPACEBEE-5              
1 43817U 18099BM  22228.63989838  .00006393  00000+0  49197-3 0  9993
2 43817  97.6305 298.7195 0007931  67.2474 292.9588 15.01998258201808
SPACEBEE-6              
1 43818U 18099BN  22229.17591558  .00003596  00000+0  30023-3 0  9992
2 43818  97.6253 296.9521 0012591  49.9151 310.3174 14.99113309201933
SHIELDS 1               
1 43850U 18104B   22229.44834332  .00003509  00000+0  14313-3 0  9993
2 43850  85.0305  11.7274 0015545  47.4735 312.7818 15.23937212203791
STF-1                   
1 43852U 18104D   22228.68470565  .00008350  00000+0  30712-3 0  9994
2 43852  85.0329  12.3645 0014198  60.7788 299.4875 15.27612715203737
ZACUBE-2                
1 43907U 18111AH  22229.40877736  .00005636  00000+0  20454-3 0  9991
2 43907  97.1819 113.5505 0018296 218.5115 227.8945 15.28550950202606
LUME 1                  
1 43908U 18111AJ  22229.23396043  .00007635  00000+0  25362-3 0  9994
2 43908  97.1822 115.1444 0016987 211.3207 148.7024 15.31337326202691
AOBA VELOX-IV           
1 43940U 19003J   22228.82968385  .00019736  00000+0  49023-3 0  9994
2 43940  97.1214 262.9975 0014247 285.6326  74.3348 15.40254771199415
MOVE-IIB                
1 44398U 19038N   22228.89136744  .00010307  00000+0  48297-3 0  9990
2 44398  97.6316 198.8447 0018973 280.2837  79.6256 15.19739509172218
SONATE                  
1 44400U 19038Q   22229.55711000  .00003874  00000+0  20953-3 0  9992
2 44400  97.6441 198.3664 0021551 283.8500  76.0331 15.15092155172185
LUCKY-7                 
1 44406U 19038W   22229.45089312  .00004887  00000+0  25603-3 0  9993
2 44406  97.6433 198.8381 0020531 280.9988  78.8935 15.16103649172203
BEESAT 9                
1 44412U 19038AC  22228.86191098  .00007101  00000+0  35485-3 0  9990
2 44412  97.6402 198.6346 0017988 286.9761  72.9500 15.17640961171859
JAISAT-1                
1 44419U 19038F   22229.42199125  .00006453  00000+0  31858-3 0  9998
2 44419  97.6404 200.0844 0016911 281.6284  78.3051 15.18120037172306
DUCHIFAT-3              
1 44854U 19089C   22228.98904166  .00002797  00000+0  21864-3 0  9999
2 44854  36.9658 101.3766 0009031 344.2709 143.6699 15.01399481147034
EYESAT-NANO             
1 44877U 19092E   22229.08993820  .00008662  00000+0  36493-3 0  9996
2 44877  97.4653  53.0776 0012144 138.5776 221.6384 15.23518861147595
ORBITAL FACTORY 2 (OF-2)
1 45113U 19071C   22228.71331178  .00026053  00000+0  49433-3 0  9990
2 45113  51.6369 122.2776 0009155  42.0567 318.1122 15.48087004142706
M2 PATHFINDER           
1 45727U 20037E   22229.04321574  .00001342  00000+0  13721-3 0  9996
2 45727  97.7383  43.4134 0012300 190.4575 169.6400 14.92153246115864
NETSAT-4                
1 46504U 20068U   22228.53745075  .00001493  00000+0  11336-3 0  9990
2 46504  97.7286 168.2318 0013305 114.6309 245.6285 15.03680744103076
NETSAT-3                
1 46505U 20068V   22228.82072564  .00002136  00000+0  16036-3 0  9996
2 46505  97.7265 168.4243 0012609 121.6513 238.5949 15.03648102103120
NETSAT-1                
1 46506U 20068W   22228.57319395  .00002907  00000+0  21702-3 0  9997
2 46506  97.7250 168.1007 0009985 134.8122 225.3909 15.03591378103082
NETSAT-2                
1 46507U 20068X   22228.65007168  .00003010  00000+0  22475-3 0  9993
2 46507  97.7256 168.1704 0008831 139.7231 220.4656 15.03562759103049
SAI-1 NANOCONNECT-2     
1 47701U 21015C   22229.21289834  .00008835  00000+0  32189-3 0  9991
2 47701  97.4201 305.8847 0009854 233.4861 126.5472 15.28386492 81499
BEESAT-6                
1 47957U 21022AB  22228.67409832  .00005226  00000+0  33096-3 0  9992
2 47957  97.5206 127.1103 0018994 304.5792  85.7120 15.09247048 76881
SMOG-1                  
1 47964U 21022AJ  22229.19280751  .00005388  00000+0  32831-3 0  9990
2 47964  97.5230 128.7904 0016432 289.8641  70.0818 15.10683102 76052
MMSATS-1                
1 47976U 98067SJ  22229.57164492  .00022712  00000+0  26471-3 0  9994
2 47976  51.6407  17.4342 0001232 227.8743 223.4661 15.61565576 79805
BCCSAT-1                
1 48041U 21022AK  22229.27923598  .00005308  00000+0  33191-3 0  9991
2 48041  97.5231 128.4216 0013273 288.1387  71.8397 15.09779684 76018
BEESAT-5                
1 48083U 21022AM  22229.27501722  .00006207  00000+0  39032-3 0  9997
2 48083  97.5201 127.7074 0018694 301.0333 186.0212 15.09436465 76105
BEESAT-7                
1 48084U 21022AN  22228.93766381  .00005574  00000+0  35206-3 0  9999
2 48084  97.5223 127.3808 0018949 303.1344 115.6591 15.09319734 75644
BEESAT-8                
1 48085U 21022AP  22228.94113632  .00004693  00000+0  29791-3 0  9999
2 48085  97.5207 127.3758 0018883 304.2072 113.7834 15.09216216 76201
RAMSAT                  
1 48850U 98067SL  22229.44271313  .00117133  00000+0  59623-3 0  9990
2 48850  51.6367   3.9341 0004700 308.2731  51.7847 15.80555162 66945
BD-28                   
1 48867U 98067SN  22229.50075800  .00232385  31092-4  72199-3 0  9998
2 48867  51.6243 358.1556 0007332 322.1597  37.8893 15.91138713 65775
BINAR-1                 
1 49272U 98067SR  22229.36699103  .00151968  00000+0  69437-3 0  9999
2 49272  51.6307   7.8698 0003775 284.0677  75.9906 15.82772041 49277
CUAVA-1                 
1 49275U 98067SU  22229.46547873  .00506264  12549-3  86776-3 0  9992
2 49275  51.6265   0.6589 0009911 310.8442 161.6134 16.01783990 49328
HSU-SAT1                
1 53462U 98067UB  22226.74141404  .00026381  00000+0  45171-3 0  9999
2 53462  51.6419  46.4994 0007959 141.3301 313.6344 15.51016320   375
FUTABA                  
1 53463U 98067UC  22226.74417056  .00032628  00000+0  55523-3 0  9992
2 53463  51.6435  46.4830 0007849 138.2377 332.5144 15.51075903   379
TUMNANOSAT              
1 53464U 98067UD  22226.73602287  .00035547  00000+0  60268-3 0  9999
2 53464  51.6409  46.5226 0007902 141.9590 283.7101 15.51135793   373
